[{"OBJECT_NAME":"GEESAT-1 09","OBJECT_ID":"2022-058J","EPOCH":"2026-03-09T22:14:58.178400","MEAN_MOTION":14.996745,"ECCENTRICITY":0.0007116,"INCLINATION":49.9974,"RA_OF_ASC_NODE":293.7726,"ARG_OF_PERICENTER":137.6611,"MEAN_ANOMALY":222.4884,"EPHEMERIS_TYPE":0,"CLASSIFICATION_TYPE":"U","NORAD_CAT_ID":52793,"ELEMENT_SET_NO":999,"REV_AT_EPOCH":20534,"BSTAR":0.00045554765,"MEAN_MOTION_DOT":5.429e-5,"MEAN_MOTION_DDOT":0},{"OBJECT_NAME":"STARLINK-36202","OBJECT_ID":"2025-298V","EPOCH":"2026-03-09T22:18:08.038080","MEAN_MOTION":14.99160974,"ECCENTRICITY":0.00024266,"INCLINATION":70.0038,"RA_OF_ASC_NODE":13.8431,"ARG_OF_PERICENTER":236.7757,"MEAN_ANOMALY":123.317,"EPHEMERIS_TYPE":0,"CLASSIFICATION_TYPE":"U","NORAD_CAT_ID":67094,"ELEMENT_SET_NO":999,"REV_AT_EPOCH":1325,"BSTAR":0.00049737229,"MEAN_MOTION_DOT":5.975e-5,"MEAN_MOTION_DDOT":0}]
